{"type": "FeatureCollection", "features": [ {"type": "Feature", "properties": {"norad_id": 33799, "name": "COSMOS 2251 DEB", "group": "cosmos-2251-debris", "lat": -4.7528090060418675, "lon": 61.71075659407185, "alt_km": 644.6604237863821, "timestamp": "2025-12-22T05:49:03.893799+00:00", "meta": {"OBJECT_NAME": "COSMOS 2251 DEB", "OBJECT_ID": "1993-036AQ", "EPOCH": "2025-12-21T15:48:11.376000", "MEAN_MOTION": 14.79726083, "ECCENTRICITY": 0.0022581, "INCLINATION": 74.0319, "RA_OF_ASC_NODE": 64.2244, "ARG_OF_PERICENTER": 131.7844, "MEAN_ANOMALY": 354.2023, "EPHEMERIS_TYPE": 0, "CLASSIFICATION_TYPE": "U", "NORAD_CAT_ID": 33799, "ELEMENT_SET_NO": 999, "REV_AT_EPOCH": 88943, "BSTAR": 0.00088918, "MEAN_MOTION_DOT": 6.685e-05, "MEAN_MOTION_DDOT": 0}, "tle": {"line1": "1 33799U 93036AQ  25355.65846500  .00006685  00000+0  88918-3 0  9997", "line2": "2 33799  74.0319  64.2244 0022581 131.7844 354.2023 14.79726083889433"}}, "geometry": {"type": "Point", "coordinates": [61.71075659407185, -4.7528090060418675]}}, {"type": "Feature", "properties": {"norad_id": 33805, "name": "COSMOS 2251 DEB", "group": "cosmos-2251-debris", "lat": 68.4774567707757, "lon": 66.69386267260451, "alt_km": 651.99682814269, "timestamp": "2025-12-22T05:49:03.893809+00:00", "meta": {"OBJECT_NAME": "COSMOS 2251 DEB", "OBJECT_ID": "1993-036AW", "EPOCH": "2025-12-21T19:27:37.083168", "MEAN_MOTION": 14.57874097, "ECCENTRICITY": 0.0059959, "INCLINATION": 74.0312, "RA_OF_ASC_NODE": 294.0742, "ARG_OF_PERICENTER": 120.4101, "MEAN_ANOMALY": 240.3008, "EPHEMERIS_TYPE": 0, "CLASSIFICATION_TYPE": "U", "NORAD_CAT_ID": 33805, "ELEMENT_SET_NO": 999, "REV_AT_EPOCH": 89359, "BSTAR": 0.00018168, "MEAN_MOTION_DOT": 8.23e-06, "MEAN_MOTION_DDOT": 0}, "tle": {"line1": "1 33805U 93036AW  25355.81084587  .00000823  00000+0  18168-3 0  9990", "line2": "2 33805  74.0312 294.0742 0059959 120.4101 240.3008 14.57874097893595"}}, "geometry": {"type": "Point", "coordinates": [66.69386267260451, 68.4774567707757]}}, {"type": "Feature", "properties": {"norad_id": 33811, "name": "COSMOS 2251 DEB", "group": "cosmos-2251-debris", "lat": 20.891274074020018, "lon": 96.58941919541276, "alt_km": 569.1316546755434, "timestamp": "2025-12-22T05:49:03.893820+00:00", "meta": {"OBJECT_NAME": "COSMOS 2251 DEB", "OBJECT_ID": "1993-036BC", "EPOCH": "2025-12-21T13:56:08.585952", "MEAN_MOTION": 15.05504555, "ECCENTRICITY": 0.0030956, "INCLINATION": 73.8382, "RA_OF_ASC_NODE": 284.3168, "ARG_OF_PERICENTER": 3.4014, "MEAN_ANOMALY": 169.4774, "EPHEMERIS_TYPE": 0, "CLASSIFICATION_TYPE": "U", "NORAD_CAT_ID": 33811, "ELEMENT_SET_NO": 999, "REV_AT_EPOCH": 90151, "BSTAR": 0.00087887, "MEAN_MOTION_DOT": 0.00012758, "MEAN_MOTION_DDOT": 0}, "tle": {"line1": "1 33811U 93036BC  25355.58065493  .00012758  00000+0  87887-3 0  9990", "line2": "2 33811  73.8382 284.3168 0030956   3.4014 169.4774 15.05504555901515"}}, "geometry": {"type": "Point", "coordinates": [96.58941919541276, 20.891274074020018]}}, {"type": "Feature", "properties": {"norad_id": 33815, "name": "COSMOS 2251 DEB", "group": "cosmos-2251-debris", "lat": -19.479792522836096, "lon": 150.74280927943997, "alt_km": 508.2481880466685, "timestamp": "2025-12-22T05:49:03.893830+00:00", "meta": {"OBJECT_NAME": "COSMOS 2251 DEB", "OBJECT_ID": "1993-036BG", "EPOCH": "2025-12-21T05:24:27.043200", "MEAN_MOTION": 15.20114947, "ECCENTRICITY": 0.0002165, "INCLINATION": 73.9521, "RA_OF_ASC_NODE": 158.7294, "ARG_OF_PERICENTER": 313.0523, "MEAN_ANOMALY": 222.7176, "EPHEMERIS_TYPE": 0, "CLASSIFICATION_TYPE": "U", "NORAD_CAT_ID": 33815, "ELEMENT_SET_NO": 999, "REV_AT_EPOCH": 88499, "BSTAR": 0.0058721, "MEAN_MOTION_DOT": 0.00129213, "MEAN_MOTION_DDOT": 0}, "tle": {"line1": "1 33815U 93036BG  25355.22531300  .00129213  00000+0  58721-2 0  9999", "line2": "2 33815  73.9521 158.7294 0002165 313.0523 222.7176 15.20114947884995"}}, "geometry": {"type": "Point", "coordinates": [150.74280927943997, -19.479792522836096]}}, {"type": "Feature", "properties": {"norad_id": 33816, "name": "COSMOS 2251 DEB", "group": "cosmos-2251-debris", "lat": -5.455896551545537, "lon": -89.12839987077372, "alt_km": 939.5162295822174, "timestamp": "2025-12-22T05:49:03.893858+00:00", "meta": {"OBJECT_NAME": "COSMOS 2251 DEB", "OBJECT_ID": "1993-036BH", "EPOCH": "2025-12-21T16:47:19.906944", "MEAN_MOTION": 13.81792785, "ECCENTRICITY": 0.0264261, "INCLINATION": 73.8952, "RA_OF_ASC_NODE": 90.2102, "ARG_OF_PERICENTER": 101.3706, "MEAN_ANOMALY": 261.7227, "EPHEMERIS_TYPE": 0, "CLASSIFICATION_TYPE": "U", "NORAD_CAT_ID": 33816, "ELEMENT_SET_NO": 999, "REV_AT_EPOCH": 84797, "BSTAR": 0.00029149, "MEAN_MOTION_DOT": 3.85e-06, "MEAN_MOTION_DDOT": 0}, "tle": {"line1": "1 33816U 93036BH  25355.69953596  .00000385  00000+0  29149-3 0  9997", "line2": "2 33816  73.8952  90.2102 0264261 101.3706 261.7227 13.81792785847973"}}, "geometry": {"type": "Point", "coordinates": [-89.12839987077372, -5.455896551545537]}}, {"type": "Feature", "properties": {"norad_id": 33818, "name": "COSMOS 2251 DEB", "group": "cosmos-2251-debris", "lat": 8.036859592598708, "lon": 148.9005336241724, "alt_km": 537.3146344845309, "timestamp": "2025-12-22T05:49:03.893870+00:00", "meta": {"OBJECT_NAME": "COSMOS 2251 DEB", "OBJECT_ID": "1993-036BK", "EPOCH": "2025-12-21T19:13:34.786848", "MEAN_MOTION": 15.13167138, "ECCENTRICITY": 0.0024883, "INCLINATION": 74.0782, "RA_OF_ASC_NODE": 147.5031, "ARG_OF_PERICENTER": 132.3011, "MEAN_ANOMALY": 353.4401, "EPHEMERIS_TYPE": 0, "CLASSIFICATION_TYPE": "U", "NORAD_CAT_ID": 33818, "ELEMENT_SET_NO": 999, "REV_AT_EPOCH": 89999, "BSTAR": 0.0021654, "MEAN_MOTION_DOT": 0.00038873, "MEAN_MOTION_DDOT": 0}, "tle": {"line1": "1 33818U 93036BK  25355.80109707  .00038873  00000+0  21654-2 0  9994", "line2": "2 33818  74.0782 147.5031 0024883 132.3011 353.4401 15.13167138899990"}}, "geometry": {"type": "Point", "coordinates": [148.9005336241724, 8.036859592598708]}}, {"type": "Feature", "properties": {"norad_id": 33819, "name": "COSMOS 2251 DEB", "group": "cosmos-2251-debris", "lat": -69.44083590424113, "lon": 61.77741217943207, "alt_km": 848.8282440599969, "timestamp": "2025-12-22T05:49:03.893881+00:00", "meta": {"OBJECT_NAME": "COSMOS 2251 DEB", "OBJECT_ID": "1993-036BL", "EPOCH": "2025-12-21T20:17:50.463744", "MEAN_MOTION": 14.32251127, "ECCENTRICITY": 0.0089432, "INCLINATION": 74.1774, "RA_OF_ASC_NODE": 193.3742, "ARG_OF_PERICENTER": 51.9453, "MEAN_ANOMALY": 320.6711, "EPHEMERIS_TYPE": 0, "CLASSIFICATION_TYPE": "U", "NORAD_CAT_ID": 33819, "ELEMENT_SET_NO": 999, "REV_AT_EPOCH": 87626, "BSTAR": 0.00044621, "MEAN_MOTION_DOT": 1.233e-05, "MEAN_MOTION_DDOT": 0}, "tle": {"line1": "1 33819U 93036BL  25355.84572296  .00001233  00000+0  44621-3 0  9996", "line2": "2 33819  74.1774 193.3742 0089432  51.9453 320.6711 14.32251127876265"}}, "geometry": {"type": "Point", "coordinates": [61.77741217943207, -69.44083590424113]}}, {"type": "Feature", "properties": {"norad_id": 33821, "name": "COSMOS 2251 DEB", "group": "cosmos-2251-debris", "lat": -61.67661612376834, "lon": -25.165719761638965, "alt_km": 496.6860006435554, "timestamp": "2025-12-22T05:49:03.893892+00:00", "meta": {"OBJECT_NAME": "COSMOS 2251 DEB", "OBJECT_ID": "1993-036BN", "EPOCH": "2025-12-21T19:18:14.393664", "MEAN_MOTION": 15.25834105, "ECCENTRICITY": 0.0049932, "INCLINATION": 74.0304, "RA_OF_ASC_NODE": 123.6653, "ARG_OF_PERICENTER": 154.2415, "MEAN_ANOMALY": 206.1289, "EPHEMERIS_TYPE": 0, "CLASSIFICATION_TYPE": "U", "NORAD_CAT_ID": 33821, "ELEMENT_SET_NO": 999, "REV_AT_EPOCH": 75139, "BSTAR": 0.0010646, "MEAN_MOTION_DOT": 0.00028307, "MEAN_MOTION_DDOT": 0}, "tle": {"line1": "1 33821U 93036BN  25355.80433326  .00028307  00000+0  10646-2 0  9995", "line2": "2 33821  74.0304 123.6653 0049932 154.2415 206.1289 15.25834105751399"}}, "geometry": {"type": "Point", "coordinates": [-25.165719761638965, -61.67661612376834]}}, {"type": "Feature", "properties": {"norad_id": 33822, "name": "COSMOS 2251 DEB", "group": "cosmos-2251-debris", "lat": 30.643593902967062, "lon": -12.836702608446386, "alt_km": 812.9055935601164, "timestamp": "2025-12-22T05:49:03.893902+00:00", "meta": {"OBJECT_NAME": "COSMOS 2251 DEB", "OBJECT_ID": "1993-036BP", "EPOCH": "2025-12-21T14:08:53.962080", "MEAN_MOTION": 14.13110302, "ECCENTRICITY": 0.0152851, "INCLINATION": 74.0677, "RA_OF_ASC_NODE": 178.0584, "ARG_OF_PERICENTER": 222.2199, "MEAN_ANOMALY": 207.2604, "EPHEMERIS_TYPE": 0, "CLASSIFICATION_TYPE": "U", "NORAD_CAT_ID": 33822, "ELEMENT_SET_NO": 999, "REV_AT_EPOCH": 86179, "BSTAR": 0.0010503, "MEAN_MOTION_DOT": 2.169e-05, "MEAN_MOTION_DDOT": 0}, "tle": {"line1": "1 33822U 93036BP  25355.58951345  .00002169  00000+0  10503-2 0  9997", "line2": "2 33822  74.0677 178.0584 0152851 222.2199 207.2604 14.13110302861791"}}, "geometry": {"type": "Point", "coordinates": [-12.836702608446386, 30.643593902967062]}}, {"type": "Feature", "properties": {"norad_id": 33823, "name": "COSMOS 2251 DEB", "group": "cosmos-2251-debris", "lat": -26.185411217709763, "lon": -39.10979404393857, "alt_km": 800.9607989142223, "timestamp": "2025-12-22T05:49:03.893913+00:00", "meta": {"OBJECT_NAME": "COSMOS 2251 DEB", "OBJECT_ID": "1993-036BQ", "EPOCH": "2025-12-21T03:58:04.827360", "MEAN_MOTION": 13.98969204, "ECCENTRICITY": 0.02094175, "INCLINATION": 73.8097, "RA_OF_ASC_NODE": 134.5636, "ARG_OF_PERICENTER": 258.3721, "MEAN_ANOMALY": 288.2927, "EPHEMERIS_TYPE": 0, "CLASSIFICATION_TYPE": "U", "NORAD_CAT_ID": 33823, "ELEMENT_SET_NO": 999, "REV_AT_EPOCH": 85727, "BSTAR": 0.0005548311, "MEAN_MOTION_DOT": 9.4e-06, "MEAN_MOTION_DDOT": 0}, "tle": {"line1": "1 33823U 93036BQ  25355.16533365  .00000940  00000+0  55483-3 0  9992", "line2": "2 33823  73.8097 134.5636 0209417 258.3721 288.2927 13.98969204857272"}}, "geometry": {"type": "Point", "coordinates": [-39.10979404393857, -26.185411217709763]}}]}